SHIJIAN-6 05A (SJ-6 05A)
1 49961U 21122A   26068.88345882  .00003299  00000+0  27617-3 0  9993
2 49961  97.4012  42.3306 0003221  76.6317 283.5266 14.99085264233873
STARLINK-5603           
1 55762U 23028X   26068.84459013  .00001195  00000+0  10793-3 0  9994
2 55762  69.9999 224.1705 0002971 283.5630  76.5198 14.98338887166553
