[{"OBJECT_NAME":"SHIJIAN-6 05A (SJ-6 05A)","OBJECT_ID":"2021-122A","EPOCH":"2026-03-09T21:12:10.842048","MEAN_MOTION":14.99085264,"ECCENTRICITY":0.0003221,"INCLINATION":97.4012,"RA_OF_ASC_NODE":42.3306,"ARG_OF_PERICENTER":76.6317,"MEAN_ANOMALY":283.5266,"EPHEMERIS_TYPE":0,"CLASSIFICATION_TYPE":"U","NORAD_CAT_ID":49961,"ELEMENT_SET_NO":999,"REV_AT_EPOCH":23387,"BSTAR":0.00027617,"MEAN_MOTION_DOT":3.299e-5,"MEAN_MOTION_DDOT":0},{"OBJECT_NAME":"STARLINK-5603","OBJECT_ID":"2023-028X","EPOCH":"2026-03-09T20:16:12.587232","MEAN_MOTION":14.98338887,"ECCENTRICITY":0.00029708,"INCLINATION":69.9999,"RA_OF_ASC_NODE":224.1705,"ARG_OF_PERICENTER":283.563,"MEAN_ANOMALY":76.5198,"EPHEMERIS_TYPE":0,"CLASSIFICATION_TYPE":"U","NORAD_CAT_ID":55762,"ELEMENT_SET_NO":999,"REV_AT_EPOCH":16655,"BSTAR":0.00010793397,"MEAN_MOTION_DOT":1.195e-5,"MEAN_MOTION_DDOT":0}]
